{"fetched_at":"2026-03-29T16:36:15Z","count":15609,"tles":[{"name":"STARLINK-1020","line1":"1 44725U 19074N   26087.34568333  .00051217  00000+0  16824-2 0  9999","line2":"2 44725  53.1619 117.1618 0001979  72.2940 287.8277 15.31092311351369","category":"Starlink"}]}